ONEWEB-0367             
1 49293U 21090Q   26032.78565211 -.00000304  00000+0 -78059-3 0  9997
2 49293  87.9225 301.4588 0001538  83.1618 276.9690 13.20771166211956
ONEWEB-0368             
1 49294U 21090R   26032.75882331  .00000089  00000+0  18680-3 0  9992
2 49294  87.9217 301.4889 0001568  49.4343 310.6927 13.20769920213108
ONEWEB-0369             
1 49295U 21090S   26032.84898995  .00000023  00000+0  25308-4 0  9990
2 49295  87.9249 331.9155 0001735  77.2578 282.8749 13.19726684208567
ONEWEB-0370             
1 49296U 21090T   26032.79514335  .00000005  00000+0 -20367-4 0  9999
2 49296  87.9222 301.4592 0001762  87.3548 272.7787 13.20773270211991
ONEWEB-0371             
1 49297U 21090U   26032.85688850 -.00000021  00000+0 -85038-4 0  9996
2 49297  87.9249 331.9021 0001723  81.3371 278.7957 13.19727192208600
ONEWEB-0372             
1 49298U 21090V   26032.78394368  .00000033  00000+0  49133-4 0  9994
2 49298  87.9222 301.4603 0001561  76.8182 283.3125 13.20773663211967
ONEWEB-0373             
1 49299U 21090W   26032.81090664  .00000023  00000+0  25094-4 0  9990
2 49299  87.9213 301.4650 0001771  77.4970 282.6362 13.20770286213151
ONEWEB-0374             
1 49300U 21090X   26032.78130139  .00000156  00000+0  38562-3 0  9991
2 49300  87.9031 316.6911 0002015  63.0523 297.0813 13.14501882209778
ONEWEB-0375             
1 49301U 21090Y   26032.79829559 -.00000017  00000+0 -72651-4 0  9990
2 49301  87.9223 301.4508 0002177  70.4994 289.6374 13.20771969212651
ONEWEB-0376             
1 49302U 21090Z   26032.85529534  .00000070  00000+0  14171-3 0  9997
2 49302  87.9256 331.8933 0001537  79.3095 280.8211 13.19728237208607
ONEWEB-0377             
1 49303U 21090AA  26032.78422257  .00000070  00000+0  14122-3 0  9990
2 49303  87.9221 301.4562 0001839  80.8077 279.3264 13.20773374212647
ONEWEB-0378             
1 49304U 21090AB  26032.80631044  .00000051  00000+0  94344-4 0  9994
2 49304  87.9219 301.4643 0001780  73.7658 286.3671 13.20770092211919
ONEWEB-0379             
1 49305U 21090AC  26032.85265818  .00000221  00000+0  56074-3 0  9998
2 49305  87.9032 316.6861 0001717  74.7090 285.4229 13.14502293209784
ONEWEB-0380             
1 49306U 21090AD  26032.85213921  .00000098  00000+0  21127-3 0  9990
2 49306  87.9248 331.9121 0002046  79.5845 280.5518 13.19728114208570
ONEWEB-0381             
1 49307U 21090AE  26032.78092120  .00000047  00000+0  84280-4 0  9993
2 49307  87.9220 301.4601 0001903  72.0955 288.0386 13.20769498211951
ONEWEB-0382             
1 49308U 21090AF  26032.76829316 -.00000177  00000+0 -46845-3 0  9997
2 49308  87.9222 301.4590 0001878  68.7512 291.3822 13.20771313211943
