[{"OBJECT_NAME":"ONEWEB-0367","OBJECT_ID":"2021-090Q","EPOCH":"2026-02-01T18:51:20.342304","MEAN_MOTION":13.20771166,"ECCENTRICITY":0.00015384,"INCLINATION":87.9225,"RA_OF_ASC_NODE":301.4588,"ARG_OF_PERICENTER":83.1618,"MEAN_ANOMALY":276.969,"EPHEMERIS_TYPE":0,"CLASSIFICATION_TYPE":"U","NORAD_CAT_ID":49293,"ELEMENT_SET_NO":999,"REV_AT_EPOCH":21195,"BSTAR":-0.00078058939,"MEAN_MOTION_DOT":-3.04e-6,"MEAN_MOTION_DDOT":0},{"OBJECT_NAME":"ONEWEB-0368","OBJECT_ID":"2021-090R","EPOCH":"2026-02-01T18:12:42.333984","MEAN_MOTION":13.2076992,"ECCENTRICITY":0.00015684,"INCLINATION":87.9217,"RA_OF_ASC_NODE":301.4889,"ARG_OF_PERICENTER":49.4343,"MEAN_ANOMALY":310.6927,"EPHEMERIS_TYPE":0,"CLASSIFICATION_TYPE":"U","NORAD_CAT_ID":49294,"ELEMENT_SET_NO":999,"REV_AT_EPOCH":21310,"BSTAR":0.00018679935,"MEAN_MOTION_DOT":8.9e-7,"MEAN_MOTION_DDOT":0},{"OBJECT_NAME":"ONEWEB-0369","OBJECT_ID":"2021-090S","EPOCH":"2026-02-01T20:22:32.731680","MEAN_MOTION":13.19726684,"ECCENTRICITY":0.00017351,"INCLINATION":87.9249,"RA_OF_ASC_NODE":331.9155,"ARG_OF_PERICENTER":77.2578,"MEAN_ANOMALY":282.8749,"EPHEMERIS_TYPE":0,"CLASSIFICATION_TYPE":"U","NORAD_CAT_ID":49295,"ELEMENT_SET_NO":999,"REV_AT_EPOCH":20856,"BSTAR":2.5307572e-5,"MEAN_MOTION_DOT":2.3e-7,"MEAN_MOTION_DDOT":0},{"OBJECT_NAME":"ONEWEB-0370","OBJECT_ID":"2021-090T","EPOCH":"2026-02-01T19:05:00.385440","MEAN_MOTION":13.2077327,"ECCENTRICITY":0.00017624,"INCLINATION":87.9222,"RA_OF_ASC_NODE":301.4592,"ARG_OF_PERICENTER":87.3548,"MEAN_ANOMALY":272.7787,"EPHEMERIS_TYPE":0,"CLASSIFICATION_TYPE":"U","NORAD_CAT_ID":49296,"ELEMENT_SET_NO":999,"REV_AT_EPOCH":21199,"BSTAR":-2.0366741e-5,"MEAN_MOTION_DOT":5.0e-8,"MEAN_MOTION_DDOT":0},{"OBJECT_NAME":"ONEWEB-0371","OBJECT_ID":"2021-090U","EPOCH":"2026-02-01T20:33:55.166400","MEAN_MOTION":13.19727192,"ECCENTRICITY":0.00017239,"INCLINATION":87.9249,"RA_OF_ASC_NODE":331.9021,"ARG_OF_PERICENTER":81.3371,"MEAN_ANOMALY":278.7957,"EPHEMERIS_TYPE":0,"CLASSIFICATION_TYPE":"U","NORAD_CAT_ID":49297,"ELEMENT_SET_NO":999,"REV_AT_EPOCH":20860,"BSTAR":-8.5037626e-5,"MEAN_MOTION_DOT":-2.1e-7,"MEAN_MOTION_DDOT":0},{"OBJECT_NAME":"ONEWEB-0372","OBJECT_ID":"2021-090V","EPOCH":"2026-02-01T18:48:52.733952","MEAN_MOTION":13.20773663,"ECCENTRICITY":0.00015618,"INCLINATION":87.9222,"RA_OF_ASC_NODE":301.4603,"ARG_OF_PERICENTER":76.8182,"MEAN_ANOMALY":283.3125,"EPHEMERIS_TYPE":0,"CLASSIFICATION_TYPE":"U","NORAD_CAT_ID":49298,"ELEMENT_SET_NO":999,"REV_AT_EPOCH":21196,"BSTAR":4.913313e-5,"MEAN_MOTION_DOT":3.3e-7,"MEAN_MOTION_DDOT":0},{"OBJECT_NAME":"ONEWEB-0373","OBJECT_ID":"2021-090W","EPOCH":"2026-02-01T19:27:42.333696","MEAN_MOTION":13.20770286,"ECCENTRICITY":0.00017719,"INCLINATION":87.9213,"RA_OF_ASC_NODE":301.465,"ARG_OF_PERICENTER":77.497,"MEAN_ANOMALY":282.6362,"EPHEMERIS_TYPE":0,"CLASSIFICATION_TYPE":"U","NORAD_CAT_ID":49299,"ELEMENT_SET_NO":999,"REV_AT_EPOCH":21315,"BSTAR":2.5094473e-5,"MEAN_MOTION_DOT":2.3e-7,"MEAN_MOTION_DDOT":0},{"OBJECT_NAME":"ONEWEB-0374","OBJECT_ID":"2021-090X","EPOCH":"2026-02-01T18:45:04.440096","MEAN_MOTION":13.14501882,"ECCENTRICITY":0.00020159,"INCLINATION":87.9031,"RA_OF_ASC_NODE":316.6911,"ARG_OF_PERICENTER":63.0523,"MEAN_ANOMALY":297.0813,"EPHEMERIS_TYPE":0,"CLASSIFICATION_TYPE":"U","NORAD_CAT_ID":49300,"ELEMENT_SET_NO":999,"REV_AT_EPOCH":20977,"BSTAR":0.00038561964,"MEAN_MOTION_DOT":1.56e-6,"MEAN_MOTION_DDOT":0},{"OBJECT_NAME":"ONEWEB-0375","OBJECT_ID":"2021-090Y","EPOCH":"2026-02-01T19:09:32.738976","MEAN_MOTION":13.20771969,"ECCENTRICITY":0.00021779,"INCLINATION":87.9223,"RA_OF_ASC_NODE":301.4508,"ARG_OF_PERICENTER":70.4994,"MEAN_ANOMALY":289.6374,"EPHEMERIS_TYPE":0,"CLASSIFICATION_TYPE":"U","NORAD_CAT_ID":49301,"ELEMENT_SET_NO":999,"REV_AT_EPOCH":21265,"BSTAR":-7.2651233e-5,"MEAN_MOTION_DOT":-1.7e-7,"MEAN_MOTION_DDOT":0},{"OBJECT_NAME":"ONEWEB-0376","OBJECT_ID":"2021-090Z","EPOCH":"2026-02-01T20:31:37.517376","MEAN_MOTION":13.19728237,"ECCENTRICITY":0.00015371,"INCLINATION":87.9256,"RA_OF_ASC_NODE":331.8933,"ARG_OF_PERICENTER":79.3095,"MEAN_ANOMALY":280.8211,"EPHEMERIS_TYPE":0,"CLASSIFICATION_TYPE":"U","NORAD_CAT_ID":49302,"ELEMENT_SET_NO":999,"REV_AT_EPOCH":20860,"BSTAR":0.00014171408,"MEAN_MOTION_DOT":7.0e-7,"MEAN_MOTION_DDOT":0},{"OBJECT_NAME":"ONEWEB-0377","OBJECT_ID":"2021-090AA","EPOCH":"2026-02-01T18:49:16.830048","MEAN_MOTION":13.20773374,"ECCENTRICITY":0.00018397,"INCLINATION":87.9221,"RA_OF_ASC_NODE":301.4562,"ARG_OF_PERICENTER":80.8077,"MEAN_ANOMALY":279.3264,"EPHEMERIS_TYPE":0,"CLASSIFICATION_TYPE":"U","NORAD_CAT_ID":49303,"ELEMENT_SET_NO":999,"REV_AT_EPOCH":21264,"BSTAR":0.00014121779,"MEAN_MOTION_DOT":7.0e-7,"MEAN_MOTION_DDOT":0},{"OBJECT_NAME":"ONEWEB-0378","OBJECT_ID":"2021-090AB","EPOCH":"2026-02-01T19:21:05.222016","MEAN_MOTION":13.20770092,"ECCENTRICITY":0.000178,"INCLINATION":87.9219,"RA_OF_ASC_NODE":301.4643,"ARG_OF_PERICENTER":73.7658,"MEAN_ANOMALY":286.3671,"EPHEMERIS_TYPE":0,"CLASSIFICATION_TYPE":"U","NORAD_CAT_ID":49304,"ELEMENT_SET_NO":999,"REV_AT_EPOCH":21191,"BSTAR":9.4344007e-5,"MEAN_MOTION_DOT":5.1e-7,"MEAN_MOTION_DDOT":0},{"OBJECT_NAME":"ONEWEB-0379","OBJECT_ID":"2021-090AC","EPOCH":"2026-02-01T20:27:49.666752","MEAN_MOTION":13.14502293,"ECCENTRICITY":0.00017176,"INCLINATION":87.9032,"RA_OF_ASC_NODE":316.6861,"ARG_OF_PERICENTER":74.709,"MEAN_ANOMALY":285.4229,"EPHEMERIS_TYPE":0,"CLASSIFICATION_TYPE":"U","NORAD_CAT_ID":49305,"ELEMENT_SET_NO":999,"REV_AT_EPOCH":20978,"BSTAR":0.0005607396,"MEAN_MOTION_DOT":2.21e-6,"MEAN_MOTION_DDOT":0},{"OBJECT_NAME":"ONEWEB-0380","OBJECT_ID":"2021-090AD","EPOCH":"2026-02-01T20:27:04.827744","MEAN_MOTION":13.19728114,"ECCENTRICITY":0.00020468,"INCLINATION":87.9248,"RA_OF_ASC_NODE":331.9121,"ARG_OF_PERICENTER":79.5845,"MEAN_ANOMALY":280.5518,"EPHEMERIS_TYPE":0,"CLASSIFICATION_TYPE":"U","NORAD_CAT_ID":49306,"ELEMENT_SET_NO":999,"REV_AT_EPOCH":20857,"BSTAR":0.00021127377,"MEAN_MOTION_DOT":9.8e-7,"MEAN_MOTION_DDOT":0},{"OBJECT_NAME":"ONEWEB-0381","OBJECT_ID":"2021-090AE","EPOCH":"2026-02-01T18:44:31.591680","MEAN_MOTION":13.20769498,"ECCENTRICITY":0.00019035,"INCLINATION":87.922,"RA_OF_ASC_NODE":301.4601,"ARG_OF_PERICENTER":72.0955,"MEAN_ANOMALY":288.0386,"EPHEMERIS_TYPE":0,"CLASSIFICATION_TYPE":"U","NORAD_CAT_ID":49307,"ELEMENT_SET_NO":999,"REV_AT_EPOCH":21195,"BSTAR":8.4279941e-5,"MEAN_MOTION_DOT":4.7e-7,"MEAN_MOTION_DDOT":0},{"OBJECT_NAME":"ONEWEB-0382","OBJECT_ID":"2021-090AF","EPOCH":"2026-02-01T18:26:20.529024","MEAN_MOTION":13.20771313,"ECCENTRICITY":0.00018789,"INCLINATION":87.9222,"RA_OF_ASC_NODE":301.459,"ARG_OF_PERICENTER":68.7512,"MEAN_ANOMALY":291.3822,"EPHEMERIS_TYPE":0,"CLASSIFICATION_TYPE":"U","NORAD_CAT_ID":49308,"ELEMENT_SET_NO":999,"REV_AT_EPOCH":21194,"BSTAR":-0.00046844662,"MEAN_MOTION_DOT":-1.77e-6,"MEAN_MOTION_DDOT":0}]
